STARLINK-31697
1 59583U 24076V   26061.03790227  .00012535  00000+0  45779-3 0  9994
2 59583  43.0008  52.1021 0001215 263.9864  96.0849 15.28043993105247
